CCSDS_OMM_VERS,COMMENT,CREATION_DATE,ORIGINATOR,OBJECT_NAME,OBJECT_ID,CENTER_NAME,REF_FRAME,TIME_SYSTEM,MEAN_ELEMENT_THEORY,EPOCH,MEAN_MOTION,ECCENTRICITY,INCLINATION,RA_OF_ASC_NODE,ARG_OF_PERICENTER,MEAN_ANOMALY,EPHEMERIS_TYPE,CLASSIFICATION_TYPE,NORAD_CAT_ID,ELEMENT_SET_NO,REV_AT_EPOCH,BSTAR,MEAN_MOTION_DOT,MEAN_MOTION_DDOT,SEMIMAJOR_AXIS,PERIOD,APOAPSIS,PERIAPSIS,OBJECT_TYPE,RCS_SIZE,COUNTRY_CODE,LAUNCH_DATE,SITE,DECAY_DATE,FILE,GP_ID,TLE_LINE0,TLE_LINE1,TLE_LINE2
2,GENERATED VIA SPACE-TRACK.ORG API,2020-12-06T20:11:23,18 SPCS,LEASAT 5,1990-002B,EARTH,TEME,UTC,SGP4,2020-12-06T12:50:42.710784,0.99591614,0.0007023,11.666,2.5402,17.0833,349.5151,0,U,20410,999,9832,0.0,-1.84e-06,0,42356.492,1445.904,36008.104,35948.611,PAYLOAD,LARGE,US,1990-01-09,AFETR,,2898589,167077655,0 LEASAT 5,1 20410U 90002B   20341.53521656 -.00000184 +00000-0 +00000-0 0  9995,2 20410 011.6660 002.5402 0007023 017.0833 349.5151 00.99591614098320
2,GENERATED VIA SPACE-TRACK.ORG API,2020-12-08T19:33:24,18 SPCS,LEASAT 5,1990-002B,EARTH,TEME,UTC,SGP4,2020-12-07T20:28:32.413152,0.99591079,0.0007045,11.6656,2.5323,16.779,102.352,0,U,20410,999,9833,0.0,-1.6e-06,0,42356.644,1445.912,36008.349,35948.669,PAYLOAD,LARGE,US,1990-01-09,AFETR,,2899533,167229025,0 LEASAT 5,1 20410U 90002B   20342.85315293 -.00000160  00000-0  00000-0 0  9993,2 20410  11.6656   2.5323 0007045  16.7790 102.3520  0.99591079 98330
2,GENERATED VIA SPACE-TRACK.ORG API,2020-12-08T06:26:10,18 SPCS,LEASAT 5,1990-002B,EARTH,TEME,UTC,SGP4,2020-12-07T20:28:32.413152,0.99591079,0.0007045,11.6656,2.5323,16.779,102.352,0,U,20410,999,9832,0.0,-1.6e-06,0,42356.644,1445.912,36008.349,35948.669,PAYLOAD,LARGE,US,1990-01-09,AFETR,,2899201,167194122,0 LEASAT 5,1 20410U 90002B   20342.85315293 -.00000160  00000-0  00000+0 0  9992,2 20410  11.6656   2.5323 0007045  16.7790 102.3520  0.99591079 98329
2,GENERATED VIA SPACE-TRACK.ORG API,2020-12-09T02:27:26,18 SPCS,LEASAT 5,1990-002B,EARTH,TEME,UTC,SGP4,2020-12-08T11:55:42.638592,0.99590842,0.0007047,11.6654,2.5284,16.6749,333.3078,0,U,20410,999,9833,0.0,-1.48e-06,0,42356.711,1445.916,36008.425,35948.728,PAYLOAD,LARGE,US,1990-01-09,AFETR,,2899603,167252301,0 LEASAT 5,1 20410U 90002B   20343.49702128 -.00000148  00000-0  00000-0 0  9997,2 20410  11.6654   2.5284 0007047  16.6749 333.3078  0.99590842 98330
2,GENERATED VIA SPACE-TRACK.ORG API,2020-12-09T17:52:09,18 SPCS,LEASAT 5,1990-002B,EARTH,TEME,UTC,SGP4,2020-12-09T01:19:08.759136,0.99590638,0.000707,11.6653,2.525,16.5518,173.4737,0,U,20410,999,9834,0.0,-1.37e-06,0,42356.769,1445.919,36008.58,35948.688,PAYLOAD,LARGE,US,1990-01-09,AFETR,,2900048,167326493,0 LEASAT 5,1 20410U 90002B   20344.05496249 -.00000137 +00000-0 +00000-0 0  9992,2 20410 011.6653 002.5250 0007070 016.5518 173.4737 00.99590638098340
2,GENERATED VIA SPACE-TRACK.ORG API,2020-12-10T05:43:41,18 SPCS,LEASAT 5,1990-002B,EARTH,TEME,UTC,SGP4,2020-12-09T12:54:11.345184,0.99590469,0.0007067,11.6651,2.5221,16.4206,346.6594,0,U,20410,999,9835,0.0,-1.28e-06,0,42356.817,1445.921,36008.616,35948.749,PAYLOAD,LARGE,US,1990-01-09,AFETR,,2900243,167353675,0 LEASAT 5,1 20410U 90002B   20344.53763131 -.00000128  00000-0  00000-0 0  9992,2 20410  11.6651   2.5221 0007067  16.4206 346.6594  0.99590469 98353
2,GENERATED VIA SPACE-TRACK.ORG API,2020-12-10T17:12:53,18 SPCS,LEASAT 5,1990-002B,EARTH,TEME,UTC,SGP4,2020-12-10T00:41:42.686592,0.99590316,0.0007093,11.665,2.5191,16.3161,162.9257,0,U,20410,999,9835,0.0,-1.18e-06,0,42356.86,1445.923,36008.769,35948.682,PAYLOAD,LARGE,US,1990-01-09,AFETR,,2900598,167403531,0 LEASAT 5,1 20410U 90002B   20345.02896628 -.00000118  00000-0  00000-0 0  9994,2 20410  11.6650   2.5191 0007093  16.3161 162.9257  0.99590316 98352
2,GENERATED VIA SPACE-TRACK.ORG API,2020-12-10T06:26:10,18 SPCS,LEASAT 5,1990-002B,EARTH,TEME,UTC,SGP4,2020-12-10T00:41:42.686592,0.99590316,0.0007093,11.665,2.5191,16.3161,162.9257,0,U,20410,999,9834,0.0,-1.18e-06,0,42356.86,1445.923,36008.769,35948.682,PAYLOAD,LARGE,US,1990-01-09,AFETR,,2900278,167391416,0 LEASAT 5,1 20410U 90002B   20345.02896628 -.00000118  00000-0  00000+0 0  9993,2 20410  11.6650   2.5191 0007093  16.3161 162.9257  0.99590316 98341
2,GENERATED VIA SPACE-TRACK.ORG API,2020-12-11T03:25:56,18 SPCS,LEASAT 5,1990-002B,EARTH,TEME,UTC,SGP4,2020-12-10T12:49:27.991200,0.99590162,0.0007091,11.6648,2.516,16.1974,344.2432,0,U,20410,999,9835,0.0,-1.09e-06,0,42356.904,1445.925,36008.804,35948.734,PAYLOAD,LARGE,US,1990-01-09,AFETR,,2900834,167451612,0 LEASAT 5,1 20410U 90002B   20345.53435175 -.00000109  00000-0  00000-0 0  9996,2 20410  11.6648   2.5160 0007091  16.1974 344.2432  0.99590162 98352
2,GENERATED VIA SPACE-TRACK.ORG API,2020-12-11T20:23:16,18 SPCS,LEASAT 5,1990-002B,EARTH,TEME,UTC,SGP4,2020-12-11T12:47:08.475072,0.99589895,0.0007118,11.6645,2.5099,15.9897,342.4072,0,U,20410,999,9836,0.0,-8.9e-07,0,42356.98,1445.929,36008.995,35948.695,PAYLOAD,LARGE,US,1990-01-09,AFETR,,2901311,167525789,0 LEASAT 5,1 20410U 90002B   20346.53273698 -.00000089 +00000-0 +00000-0 0  9994,2 20410 011.6645 002.5099 0007118 015.9897 342.4072 00.99589895098363
2,GENERATED VIA SPACE-TRACK.ORG API,2020-12-12T05:34:55,18 SPCS,LEASAT 5,1990-002B,EARTH,TEME,UTC,SGP4,2020-12-11T20:14:40.763904,0.99589817,0.0007138,11.6644,2.5081,15.8553,93.9708,0,U,20410,999,9837,0.0,-8.4e-07,0,42357.002,1445.93,36009.101,35948.633,PAYLOAD,LARGE,US,1990-01-09,AFETR,,2901490,167551962,0 LEASAT 5,1 20410U 90002B   20346.84352736 -.00000084  00000-0  00000-0 0  9994,2 20410  11.6644   2.5081 0007138  15.8553  93.9708  0.99589817 98372
2,GENERATED VIA SPACE-TRACK.ORG API,2020-12-12T20:38:44,18 SPCS,LEASAT 5,1990-002B,EARTH,TEME,UTC,SGP4,2020-12-12T01:37:42.645216,0.99589764,0.0007151,11.6643,2.5067,15.8835,174.3716,0,U,20410,999,9837,0.0,-7.9e-07,0,42357.017,1445.931,36009.172,35948.593,PAYLOAD,LARGE,US,1990-01-09,AFETR,,2901853,167602651,0 LEASAT 5,1 20410U 90002B   20347.06785469 -.00000079  00000-0  00000-0 0  9996,2 20410  11.6643   2.5067 0007151  15.8835 174.3716  0.99589764 98377
2,GENERATED VIA SPACE-TRACK.ORG API,2020-12-12T14:26:10,18 SPCS,LEASAT 5,1990-002B,EARTH,TEME,UTC,SGP4,2020-12-12T01:37:42.645216,0.99589764,0.0007151,11.6643,2.5067,15.8835,174.3716,0,U,20410,999,9836,0.0,-7.9e-07,0,42357.017,1445.931,36009.172,35948.593,PAYLOAD,LARGE,US,1990-01-09,AFETR,,2901728,167594577,0 LEASAT 5,1 20410U 90002B   20347.06785469 -.00000079  00000-0  00000+0 0  9995,2 20410  11.6643   2.5067 0007151  15.8835 174.3716  0.99589764 98366
2,GENERATED VIA SPACE-TRACK.ORG API,2020-12-13T04:10:27,18 SPCS,LEASAT 5,1990-002B,EARTH,TEME,UTC,SGP4,2020-12-12T12:29:42.664416,0.99589667,0.000715,11.6642,2.5039,15.7999,336.7916,0,U,20410,999,9837,0.0,-7.1e-07,0,42357.045,1445.933,36009.195,35948.624,PAYLOAD,LARGE,US,1990-01-09,AFETR,,2902033,167650215,0 LEASAT 5,1 20410U 90002B   20347.52063269 -.00000071 +00000-0 +00000-0 0  9996,2 20410 011.6642 002.5039 0007150 015.7999 336.7916 00.99589667098372
2,GENERATED VIA SPACE-TRACK.ORG API,2020-12-13T20:07:11,18 SPCS,LEASAT 5,1990-002B,EARTH,TEME,UTC,SGP4,2020-12-13T01:12:18.561312,0.99589565,0.0007183,11.664,2.5007,15.6904,166.7743,0,U,20410,999,9838,0.0,-6.1e-07,0,42357.073,1445.934,36009.364,35948.513,PAYLOAD,LARGE,US,1990-01-09,AFETR,,2902446,167703471,0 LEASAT 5,1 20410U 90002B   20348.05021483 -.00000061  00000-0  00000-0 0  9996,2 20410  11.6640   2.5007 0007183  15.6904 166.7743  0.99589565 98383
2,GENERATED VIA SPACE-TRACK.ORG API,2020-12-14T03:53:25,18 SPCS,LEASAT 5,1990-002B,EARTH,TEME,UTC,SGP4,2020-12-13T12:36:03.987360,0.99589481,0.0007185,11.6639,2.4978,15.6301,337.0773,0,U,20410,999,9838,0.0,-5.2e-07,0,42357.097,1445.935,36009.396,35948.529,PAYLOAD,LARGE,US,1990-01-09,AFETR,,2902641,167750798,0 LEASAT 5,1 20410U 90002B   20348.52504615 -.00000052  00000-0  00000-0 0  9991,2 20410  11.6639   2.4978 0007185  15.6301 337.0773  0.99589481 98383
2,GENERATED VIA SPACE-TRACK.ORG API,2020-12-14T14:26:09,18 SPCS,LEASAT 5,1990-002B,EARTH,TEME,UTC,SGP4,2020-12-14T02:29:42.658080,0.99589393,0.0007219,11.6637,2.4942,15.5551,184.7142,0,U,20410,999,9838,0.0,-4.2e-07,0,42357.122,1445.937,36009.565,35948.41,PAYLOAD,LARGE,US,1990-01-09,AFETR,,2902874,167792930,0 LEASAT 5,1 20410U 90002B   20349.10396595 -.00000042  00000-0  00000+0 0  9990,2 20410  11.6637   2.4942 0007219  15.5551 184.7142  0.99589393 98385
2,GENERATED VIA SPACE-TRACK.ORG API,2020-12-14T19:41:07,18 SPCS,LEASAT 5,1990-002B,EARTH,TEME,UTC,SGP4,2020-12-14T12:57:42.570720,0.99589342,0.0007224,11.6636,2.4916,15.4782,341.151,0,U,20410,999,9839,0.0,-3.4e-07,0,42357.137,1445.937,36009.6,35948.403,PAYLOAD,LARGE,US,1990-01-09,AFETR,,2902965,167799994,0 LEASAT 5,1 20410U 90002B   20349.54007605 -.00000034  00000-0  00000-0 0  9991,2 20410  11.6636   2.4916 0007224  15.4782 341.1510  0.99589342 98399
2,GENERATED VIA SPACE-TRACK.ORG API,2020-12-16T00:49:11,18 SPCS,LEASAT 5,1990-002B,EARTH,TEME,UTC,SGP4,2020-12-15T13:31:42.582720,0.99589248,0.0007268,11.6633,2.4853,15.3649,348.2622,0,U,20410,999,9841,0.0,-1.6e-07,0,42357.163,1445.939,36009.814,35948.243,PAYLOAD,LARGE,US,1990-01-09,AFETR,,2903454,167832748,0 LEASAT 5,1 20410U 90002B   20350.56368730 -.00000016  00000-0  00000-0 0  9994,2 20410  11.6633   2.4853 0007268  15.3649 348.2622  0.99589248 98415
2,GENERATED VIA SPACE-TRACK.ORG API,2020-12-16T19:47:53,18 SPCS,LEASAT 5,1990-002B,EARTH,TEME,UTC,SGP4,2020-12-16T12:55:17.155200,0.99589216,0.0007312,11.6629,2.4794,15.3102,337.7805,0,U,20410,999,9841,0.0,0.0,0,42357.172,1445.939,36010.009,35948.066,PAYLOAD,LARGE,US,1990-01-09,AFETR,,2903946,167886770,0 LEASAT 5,1 20410U 90002B   20351.53839300  .00000000  00000-0  00000-0 0  9990,2 20410  11.6629   2.4794 0007312  15.3102 337.7805  0.99589216 98419
